STARLINK-36165          
1 66937U 25286N   26004.54355269  .00095369  00000+0  16996-2 0  9999
2 66937  53.1597 298.6751 0001270  72.4873 287.6275 15.49347711  5567
STARLINK-36155          
1 66938U 25286P   26003.33336806 -.00155008  00000+0 -28275-2 0  9994
2 66938  53.1586 304.4574 0001090  88.1775   0.2121 15.49379009  5463
STARLINK-36154          
1 66939U 25286Q   26004.18712566  .00060750  00000+0  15183-2 0  9991
2 66939  53.1606 300.7193 0001041 118.5694 241.5415 15.39586795  5509
STARLINK-36121          
1 66940U 25286R   26004.11756597  .00065334  00000+0  16317-2 0  9991
2 66940  53.1629 300.9962 0001541  70.8613 289.2559 15.39576299  5492
STARLINK-36088          
1 66941U 25286S   26004.53612079  .00125151  00000+0  22194-2 0  9998
2 66941  53.1599 298.6263 0001152  85.5443 274.5698 15.49347175  5567
STARLINK-36100          
1 66942U 25286T   26004.58335648  .00051816  00000+0  12978-2 0  9993
2 66942  53.1591 298.7483 0000473  84.1560   4.8285 15.39591195  5596
STARLINK-36109          
1 66943U 25286U   26004.58335648  .00047647  00000+0  11949-2 0  9998
2 66943  53.1596 298.6453 0001381  97.1749  43.3198 15.39588724  5595
STARLINK-36112          
1 66944U 25286V   26004.58335648  .00052475  00000+0  13148-2 0  9997
2 66944  53.1599 298.5417 0001501  99.4118  92.6437 15.39574965  5660
STARLINK-36110          
1 66945U 25286W   26004.58335648  .00050404  00000+0  12630-2 0  9993
2 66945  53.1599 298.5922 0001268  98.0502  68.2003 15.39590476  5667
STARLINK-36115          
1 66946U 25286X   26004.58335648 -.03439440  00000+0 -90632-1 0  9997
2 66946  53.1603 298.4936 0001597  93.1124 122.9476 15.42420213  5666
STARLINK-36089          
1 66947U 25286Y   26004.53977531  .00112451  00000+0  19987-2 0  9996
2 66947  53.1601 298.6477 0001465  87.4645 272.6531 15.49341555  5567
STARLINK-36116          
1 66948U 25286Z   26004.60620706 -.00331207  00000+0 -71942-2 0  9997
2 66948  53.1593 298.3504 0001068 100.2205 259.8923 15.45047634  5571
