CCSDS_OMM_VERS = 2.0
CREATION_DATE  = 
ORIGINATOR     = 

OBJECT_NAME    = STARLINK-36165
OBJECT_ID      = 2025-286N
CENTER_NAME    = EARTH
REF_FRAME      = TEME
TIME_SYSTEM    = UTC
MEAN_ELEMENT_THEORY = SGP/SGP4

EPOCH          = 2026-01-04T13:02:42.952416
MEAN_MOTION    = 15.49347711
ECCENTRICITY   = .00012706
INCLINATION    = 53.1597
RA_OF_ASC_NODE = 298.6751
ARG_OF_PERICENTER = 72.4873
MEAN_ANOMALY   = 287.6275

EPHEMERIS_TYPE = 0
CLASSIFICATION_TYPE = U
NORAD_CAT_ID   = 66937
ELEMENT_SET_NO = 999
REV_AT_EPOCH   = 556
BSTAR          = .16996072E-2
MEAN_MOTION_DOT = .95369E-3
MEAN_MOTION_DDOT = 0

CCSDS_OMM_VERS = 2.0
CREATION_DATE  = 
ORIGINATOR     = 

OBJECT_NAME    = STARLINK-36155
OBJECT_ID      = 2025-286P
CENTER_NAME    = EARTH
REF_FRAME      = TEME
TIME_SYSTEM    = UTC
MEAN_ELEMENT_THEORY = SGP/SGP4

EPOCH          = 2026-01-03T08:00:03.000384
MEAN_MOTION    = 15.49379009
ECCENTRICITY   = .00010904
INCLINATION    = 53.1586
RA_OF_ASC_NODE = 304.4574
ARG_OF_PERICENTER = 88.1775
MEAN_ANOMALY   = 0.2121

EPHEMERIS_TYPE = 0
CLASSIFICATION_TYPE = U
NORAD_CAT_ID   = 66938
ELEMENT_SET_NO = 999
REV_AT_EPOCH   = 546
BSTAR          = -.28275309E-2
MEAN_MOTION_DOT = -.155008E-2
MEAN_MOTION_DDOT = 0

CCSDS_OMM_VERS = 2.0
CREATION_DATE  = 
ORIGINATOR     = 

OBJECT_NAME    = STARLINK-36154
OBJECT_ID      = 2025-286Q
CENTER_NAME    = EARTH
REF_FRAME      = TEME
TIME_SYSTEM    = UTC
MEAN_ELEMENT_THEORY = SGP/SGP4

EPOCH          = 2026-01-04T04:29:27.657024
MEAN_MOTION    = 15.39586795
ECCENTRICITY   = .0001041
INCLINATION    = 53.1606
RA_OF_ASC_NODE = 300.7193
ARG_OF_PERICENTER = 118.5694
MEAN_ANOMALY   = 241.5415

EPHEMERIS_TYPE = 0
CLASSIFICATION_TYPE = U
NORAD_CAT_ID   = 66939
ELEMENT_SET_NO = 999
REV_AT_EPOCH   = 550
BSTAR          = .15183E-2
MEAN_MOTION_DOT = .6075E-3
MEAN_MOTION_DDOT = 0

CCSDS_OMM_VERS = 2.0
CREATION_DATE  = 
ORIGINATOR     = 

OBJECT_NAME    = STARLINK-36121
OBJECT_ID      = 2025-286R
CENTER_NAME    = EARTH
REF_FRAME      = TEME
TIME_SYSTEM    = UTC
MEAN_ELEMENT_THEORY = SGP/SGP4

EPOCH          = 2026-01-04T02:49:17.699808
MEAN_MOTION    = 15.39576299
ECCENTRICITY   = .00015417
INCLINATION    = 53.1629
RA_OF_ASC_NODE = 300.9962
ARG_OF_PERICENTER = 70.8613
MEAN_ANOMALY   = 289.2559

EPHEMERIS_TYPE = 0
CLASSIFICATION_TYPE = U
NORAD_CAT_ID   = 66940
ELEMENT_SET_NO = 999
REV_AT_EPOCH   = 549
BSTAR          = .16317045E-2
MEAN_MOTION_DOT = .65334E-3
MEAN_MOTION_DDOT = 0

CCSDS_OMM_VERS = 2.0
CREATION_DATE  = 
ORIGINATOR     = 

OBJECT_NAME    = STARLINK-36088
OBJECT_ID      = 2025-286S
CENTER_NAME    = EARTH
REF_FRAME      = TEME
TIME_SYSTEM    = UTC
MEAN_ELEMENT_THEORY = SGP/SGP4

EPOCH          = 2026-01-04T12:52:00.836256
MEAN_MOTION    = 15.49347175
ECCENTRICITY   = .00011524
INCLINATION    = 53.1599
RA_OF_ASC_NODE = 298.6263
ARG_OF_PERICENTER = 85.5443
MEAN_ANOMALY   = 274.5698

EPHEMERIS_TYPE = 0
CLASSIFICATION_TYPE = U
NORAD_CAT_ID   = 66941
ELEMENT_SET_NO = 999
REV_AT_EPOCH   = 556
BSTAR          = .22194175E-2
MEAN_MOTION_DOT = .125151E-2
MEAN_MOTION_DDOT = 0

CCSDS_OMM_VERS = 2.0
CREATION_DATE  = 
ORIGINATOR     = 

OBJECT_NAME    = STARLINK-36100
OBJECT_ID      = 2025-286T
CENTER_NAME    = EARTH
REF_FRAME      = TEME
TIME_SYSTEM    = UTC
MEAN_ELEMENT_THEORY = SGP/SGP4

EPOCH          = 2026-01-04T14:00:01.999872
MEAN_MOTION    = 15.39591195
ECCENTRICITY   = .00004731
INCLINATION    = 53.1591
RA_OF_ASC_NODE = 298.7483
ARG_OF_PERICENTER = 84.1560
MEAN_ANOMALY   = 4.8285

EPHEMERIS_TYPE = 0
CLASSIFICATION_TYPE = U
NORAD_CAT_ID   = 66942
ELEMENT_SET_NO = 999
REV_AT_EPOCH   = 559
BSTAR          = .12978186E-2
MEAN_MOTION_DOT = .51816E-3
MEAN_MOTION_DDOT = 0

CCSDS_OMM_VERS = 2.0
CREATION_DATE  = 
ORIGINATOR     = 

OBJECT_NAME    = STARLINK-36109
OBJECT_ID      = 2025-286U
CENTER_NAME    = EARTH
REF_FRAME      = TEME
TIME_SYSTEM    = UTC
MEAN_ELEMENT_THEORY = SGP/SGP4

EPOCH          = 2026-01-04T14:00:01.999872
MEAN_MOTION    = 15.39588724
ECCENTRICITY   = .0001381
INCLINATION    = 53.1596
RA_OF_ASC_NODE = 298.6453
ARG_OF_PERICENTER = 97.1749
MEAN_ANOMALY   = 43.3198

EPHEMERIS_TYPE = 0
CLASSIFICATION_TYPE = U
NORAD_CAT_ID   = 66943
ELEMENT_SET_NO = 999
REV_AT_EPOCH   = 559
BSTAR          = .11949351E-2
MEAN_MOTION_DOT = .47647E-3
MEAN_MOTION_DDOT = 0

CCSDS_OMM_VERS = 2.0
CREATION_DATE  = 
ORIGINATOR     = 

OBJECT_NAME    = STARLINK-36112
OBJECT_ID      = 2025-286V
CENTER_NAME    = EARTH
REF_FRAME      = TEME
TIME_SYSTEM    = UTC
MEAN_ELEMENT_THEORY = SGP/SGP4

EPOCH          = 2026-01-04T14:00:01.999872
MEAN_MOTION    = 15.39574965
ECCENTRICITY   = .00015016
INCLINATION    = 53.1599
RA_OF_ASC_NODE = 298.5417
ARG_OF_PERICENTER = 99.4118
MEAN_ANOMALY   = 92.6437

EPHEMERIS_TYPE = 0
CLASSIFICATION_TYPE = U
NORAD_CAT_ID   = 66944
ELEMENT_SET_NO = 999
REV_AT_EPOCH   = 566
BSTAR          = .13147647E-2
MEAN_MOTION_DOT = .52475E-3
MEAN_MOTION_DDOT = 0

CCSDS_OMM_VERS = 2.0
CREATION_DATE  = 
ORIGINATOR     = 

OBJECT_NAME    = STARLINK-36110
OBJECT_ID      = 2025-286W
CENTER_NAME    = EARTH
REF_FRAME      = TEME
TIME_SYSTEM    = UTC
MEAN_ELEMENT_THEORY = SGP/SGP4

EPOCH          = 2026-01-04T14:00:01.999872
MEAN_MOTION    = 15.39590476
ECCENTRICITY   = .00012683
INCLINATION    = 53.1599
RA_OF_ASC_NODE = 298.5922
ARG_OF_PERICENTER = 98.0502
MEAN_ANOMALY   = 68.2003

EPHEMERIS_TYPE = 0
CLASSIFICATION_TYPE = U
NORAD_CAT_ID   = 66945
ELEMENT_SET_NO = 999
REV_AT_EPOCH   = 566
BSTAR          = .12629836E-2
MEAN_MOTION_DOT = .50404E-3
MEAN_MOTION_DDOT = 0

CCSDS_OMM_VERS = 2.0
CREATION_DATE  = 
ORIGINATOR     = 

OBJECT_NAME    = STARLINK-36115
OBJECT_ID      = 2025-286X
CENTER_NAME    = EARTH
REF_FRAME      = TEME
TIME_SYSTEM    = UTC
MEAN_ELEMENT_THEORY = SGP/SGP4

EPOCH          = 2026-01-04T14:00:01.999872
MEAN_MOTION    = 15.42420213
ECCENTRICITY   = .0001597
INCLINATION    = 53.1603
RA_OF_ASC_NODE = 298.4936
ARG_OF_PERICENTER = 93.1124
MEAN_ANOMALY   = 122.9476

EPHEMERIS_TYPE = 0
CLASSIFICATION_TYPE = U
NORAD_CAT_ID   = 66946
ELEMENT_SET_NO = 999
REV_AT_EPOCH   = 566
BSTAR          = -.9063202E-1
MEAN_MOTION_DOT = -.343944E-1
MEAN_MOTION_DDOT = 0

CCSDS_OMM_VERS = 2.0
CREATION_DATE  = 
ORIGINATOR     = 

OBJECT_NAME    = STARLINK-36089
OBJECT_ID      = 2025-286Y
CENTER_NAME    = EARTH
REF_FRAME      = TEME
TIME_SYSTEM    = UTC
MEAN_ELEMENT_THEORY = SGP/SGP4

EPOCH          = 2026-01-04T12:57:16.586784
MEAN_MOTION    = 15.49341555
ECCENTRICITY   = .00014657
INCLINATION    = 53.1601
RA_OF_ASC_NODE = 298.6477
ARG_OF_PERICENTER = 87.4645
MEAN_ANOMALY   = 272.6531

EPHEMERIS_TYPE = 0
CLASSIFICATION_TYPE = U
NORAD_CAT_ID   = 66947
ELEMENT_SET_NO = 999
REV_AT_EPOCH   = 556
BSTAR          = .19986545E-2
MEAN_MOTION_DOT = .112451E-2
MEAN_MOTION_DDOT = 0

CCSDS_OMM_VERS = 2.0
CREATION_DATE  = 
ORIGINATOR     = 

OBJECT_NAME    = STARLINK-36116
OBJECT_ID      = 2025-286Z
CENTER_NAME    = EARTH
REF_FRAME      = TEME
TIME_SYSTEM    = UTC
MEAN_ELEMENT_THEORY = SGP/SGP4

EPOCH          = 2026-01-04T14:32:56.289984
MEAN_MOTION    = 15.45047634
ECCENTRICITY   = .00010681
INCLINATION    = 53.1593
RA_OF_ASC_NODE = 298.3504
ARG_OF_PERICENTER = 100.2205
MEAN_ANOMALY   = 259.8923

EPHEMERIS_TYPE = 0
CLASSIFICATION_TYPE = U
NORAD_CAT_ID   = 66948
ELEMENT_SET_NO = 999
REV_AT_EPOCH   = 557
BSTAR          = -.71941832E-2
MEAN_MOTION_DOT = -.331207E-2
MEAN_MOTION_DDOT = 0

